{"spkid": "54153128", "covariance": {"epoch": "2458170.5", "elements": [{"units": null, "title": "eccentricity", "value": ".6325266387330818", "name": "e", "sigma": 6.28187400032936e-08, "label": "e"}, {"label": "q", "value": ".3960164969692073", "title": "perihelion distance", "units": "au", "sigma": 6.69152351822887e-08, "name": "q"}, {"title": "time of perihelion passage", "value": "2458220.963157862490", "units": "TDB", "sigma": 2.78874968093515e-05, "name": "tp", "label": "tp"}, {"title": "longitude of the ascending node", "value": "236.8759852030937", "units": "deg", "name": "om", "sigma": 4.25780980687434e-05, "label": "node"}, {"sigma": 4.70729767897439e-05, "name": "w", "title": "argument of perihelion", "value": "153.8161922642985", "units": "deg", "label": "peri"}, {"label": "i", "sigma": 8.18826434680911e-06, "name": "i", "units": "deg", "title": "inclination", "value": "5.595525178211535"}], "data": [["3.946194095601403E-15", "-4.201811830216624E-15", "-3.854159286844454E-13", "1.24366093492416E-14", "9.915585964713762E-14", "8.551830367210264E-14"], ["-4.201811830216624E-15", "4.477648699501004E-15", "3.761689739901147E-13", "3.44250908539748E-16", "-1.297985982882714E-13", "-8.902132806575365E-14"], ["-3.854159286844454E-13", "3.761689739901147E-13", "7.777124782915877E-10", "-3.844242827113871E-10", "6.577491601385446E-10", "-3.645036383620561E-11"], ["1.24366093492416E-14", "3.44250908539748E-16", "-3.844242827113871E-10", "1.812894435151528E-9", "-1.950032122417225E-9", "9.155598152429649E-11"], ["9.915585964713762E-14", "-1.297985982882714E-13", "6.577491601385446E-10", "-1.950032122417225E-9", "2.215865143847772E-9", "-9.889616251000729E-11"], ["8.551830367210264E-14", "-8.902132806575365E-14", "-3.645036383620561E-11", "9.155598152429649E-11", "-9.889616251000729E-11", "6.70476730132253E-11"]], "labels": ["e", "q", "tp", "node", "peri", "i"]}, "elements": [{"label": "e", "name": "e", "sigma": "6.2818E-8", "units": null, "value": ".6323360338733728", "title": "eccentricity"}, {"sigma": "5.7193E-9", "name": "a", "title": "semi-major axis", "value": "1.077732282367325", "units": "au", "label": "a"}, {"units": "au", "title": "perihelion distance", "value": ".3962433253578727", "name": "q", "sigma": "6.7006E-8", "label": "q"}, {"label": "i", "sigma": "8.1894E-6", "name": "i", "units": "deg", "value": "5.594054367781406", "title": "inclination; angle with respect to x-y ecliptic plane"}, {"label": "node", "value": "236.7244384923444", "title": "longitude of the ascending node", "units": "deg", "name": "om", "sigma": "4.2676E-5"}, {"sigma": "4.7189E-5", "name": "w", "units": "deg", "title": "argument of perihelion", "value": "153.9459633480425", "label": "peri"}, {"label": "M", "units": "deg", "title": "mean anomaly", "value": "104.5499481668693", "name": "ma", "sigma": "1.9374E-5"}, {"label": "tp", "units": "TDB", "value": "2461081.817664017592", "title": "time of perihelion passage", "name": "tp", "sigma": "2.171E-5"}, {"label": "period", "name": "per", "sigma": "3.253E-6", "title": "sidereal orbital period", "value": "408.6624785836695", "units": "d"}, {"units": "deg/d", "title": "mean motion", "value": ".8809225678062678", "sigma": "7.0123E-9", "name": "n", "label": "n"}, {"title": "aphelion distance", "value": "1.759221239376777", "units": "au", "name": "ad", "sigma": "9.3358E-9", "label": "Q"}], "epoch": "2461200.5"}